FOSSASAT-2E25           
1 68478U 26067BQ  26112.83896653  .00000690  00000+0  73561-4 0  9994
2 68478  97.7560  71.9747 0003427  98.2783 261.8825 14.92031776  3473
TRANSPORTER-16 OBJECT BR
1 68479U 26067BR  26112.77128614  .00002763  00000+0  27724-3 0  9995
2 68479  97.7515  71.8986 0003251  86.5344 273.6247 14.92121874  3463
TRANSPORTER-16 OBJECT BS
1 68480U 26067BS  26112.83123549  .00002871  00000+0  28458-3 0  9991
2 68480  97.7592  71.9917 0005675  92.9286 267.2583 14.92573421  3475
TORO3                   
1 68481U 26067BT  26112.84002144  .00001623  00000+0  16565-3 0  9990
2 68481  97.7630  71.9890 0004040 120.3872 239.7747 14.91987054  3477
TRANSPORTER-16 OBJECT BU
1 68482U 26067BU  26112.83125114  .00002930  00000+0  29033-3 0  9999
2 68482  97.7538  71.9800 0005208  80.2437 279.9370 14.92572104  3479
TRANSPORTER-16 OBJECT BV
1 68483U 26067BV  26112.83517662  .00001219  00000+0  12484-3 0  9994
2 68483  97.7610  71.9906 0004808 102.9183 257.2573 14.92301332  3470
TRANSPORTER-16 OBJECT BW
1 68484U 26067BW  26112.90936251  .00001535  00000+0  15751-3 0  9993
2 68484  97.7582  72.0418 0002817 119.0064 241.1438 14.91857606  3486
TRANSPORTER-16 OBJECT BX
1 68485U 26067BX  26112.84069623  .00005532  00000+0  55056-3 0  9990
2 68485  97.7551  71.9693 0003040 108.8365 251.3184 14.92037418  3477
TRANSPORTER-16 OBJECT BY
1 68486U 26067BY  26112.84309249  .00001212  00000+0  12569-3 0  9995
2 68486  97.7544  71.9650 0002295 109.3552 250.7916 14.91784663  3474
TRANSPORTER-16 OBJECT BZ
1 68487U 26067BZ  26112.83645374  .00003620  00000+0  36029-3 0  9999
2 68487  97.7509  71.9662 0003612  80.7146 279.4482 14.92254000  3478
TRANSPORTER-16 OBJECT CA
1 68488U 26067CA  26112.91465329  .00001157  00000+0  12106-3 0  9992
2 68488  97.7541  72.0242 0001271 131.6387 228.4940 14.91511423  3481
TRANSPORTER-16 OBJECT CB
1 68489U 26067CB  26112.85104121  .00001679  00000+0  17421-3 0  9990
2 68489  97.7502  71.9447 0000580 202.7721 157.3472 14.91291301  3477
TRANSPORTER-16 OBJECT CC
1 68490U 26067CC  26112.84977814  .00001537  00000+0  15962-3 0  9999
2 68490  97.7576  71.9644 0001959 164.4021 195.7258 14.91364038  3473
TRANSPORTER-16 OBJECT CD
1 68491U 26067CD  26112.85357684  .00001301  00000+0  13668-3 0  9998
2 68491  97.7529  71.9485 0001745 211.6552 148.4561 14.91138943  3478
TRANSPORTER-16 OBJECT CE
1 68492U 26067CE  26112.85448817  .00003216  00000+0  32997-3 0  9991
2 68492  97.7534  71.9481 0001947 214.5916 145.5176 14.91114240  3475
TRANSPORTER-16 OBJECT CF
1 68493U 26067CF  26112.85342124  .00002577  00000+0  26517-3 0  9996
2 68493  97.7620  71.9693 0003219 182.1064 178.0142 14.91160976  3476
