[{"OBJECT_NAME":"FOSSASAT-2E25","OBJECT_ID":"2026-067BQ","EPOCH":"2026-04-22T20:08:06.708192","MEAN_MOTION":14.92031776,"ECCENTRICITY":0.0003427,"INCLINATION":97.756,"RA_OF_ASC_NODE":71.9747,"ARG_OF_PERICENTER":98.2783,"MEAN_ANOMALY":261.8825,"EPHEMERIS_TYPE":0,"CLASSIFICATION_TYPE":"U","NORAD_CAT_ID":68478,"ELEMENT_SET_NO":999,"REV_AT_EPOCH":347,"BSTAR":7.3561e-5,"MEAN_MOTION_DOT":6.9e-6,"MEAN_MOTION_DDOT":0},{"OBJECT_NAME":"TRANSPORTER-16 OBJECT BR","OBJECT_ID":"2026-067BR","EPOCH":"2026-04-22T18:30:39.122496","MEAN_MOTION":14.92121874,"ECCENTRICITY":0.00032519,"INCLINATION":97.7515,"RA_OF_ASC_NODE":71.8986,"ARG_OF_PERICENTER":86.5344,"MEAN_ANOMALY":273.6247,"EPHEMERIS_TYPE":0,"CLASSIFICATION_TYPE":"U","NORAD_CAT_ID":68479,"ELEMENT_SET_NO":999,"REV_AT_EPOCH":346,"BSTAR":0.00027723746,"MEAN_MOTION_DOT":2.763e-5,"MEAN_MOTION_DDOT":0},{"OBJECT_NAME":"TRANSPORTER-16 OBJECT BS","OBJECT_ID":"2026-067BS","EPOCH":"2026-04-22T19:56:58.746336","MEAN_MOTION":14.92573421,"ECCENTRICITY":0.00056752,"INCLINATION":97.7592,"RA_OF_ASC_NODE":71.9917,"ARG_OF_PERICENTER":92.9286,"MEAN_ANOMALY":267.2583,"EPHEMERIS_TYPE":0,"CLASSIFICATION_TYPE":"U","NORAD_CAT_ID":68480,"ELEMENT_SET_NO":999,"REV_AT_EPOCH":347,"BSTAR":0.00028457702,"MEAN_MOTION_DOT":2.871e-5,"MEAN_MOTION_DDOT":0},{"OBJECT_NAME":"TORO3","OBJECT_ID":"2026-067BT","EPOCH":"2026-04-22T20:09:37.852416","MEAN_MOTION":14.91987054,"ECCENTRICITY":0.0004041,"INCLINATION":97.763,"RA_OF_ASC_NODE":71.989,"ARG_OF_PERICENTER":120.3872,"MEAN_ANOMALY":239.7747,"EPHEMERIS_TYPE":0,"CLASSIFICATION_TYPE":"U","NORAD_CAT_ID":68481,"ELEMENT_SET_NO":999,"REV_AT_EPOCH":347,"BSTAR":0.00016565,"MEAN_MOTION_DOT":1.623e-5,"MEAN_MOTION_DDOT":0},{"OBJECT_NAME":"TRANSPORTER-16 OBJECT BU","OBJECT_ID":"2026-067BU","EPOCH":"2026-04-22T19:57:00.098496","MEAN_MOTION":14.92572104,"ECCENTRICITY":0.00052082,"INCLINATION":97.7538,"RA_OF_ASC_NODE":71.98,"ARG_OF_PERICENTER":80.2437,"MEAN_ANOMALY":279.937,"EPHEMERIS_TYPE":0,"CLASSIFICATION_TYPE":"U","NORAD_CAT_ID":68482,"ELEMENT_SET_NO":999,"REV_AT_EPOCH":347,"BSTAR":0.00029033349,"MEAN_MOTION_DOT":2.93e-5,"MEAN_MOTION_DDOT":0},{"OBJECT_NAME":"TRANSPORTER-16 OBJECT BV","OBJECT_ID":"2026-067BV","EPOCH":"2026-04-22T20:02:39.259968","MEAN_MOTION":14.92301332,"ECCENTRICITY":0.00048088,"INCLINATION":97.761,"RA_OF_ASC_NODE":71.9906,"ARG_OF_PERICENTER":102.9183,"MEAN_ANOMALY":257.2573,"EPHEMERIS_TYPE":0,"CLASSIFICATION_TYPE":"U","NORAD_CAT_ID":68483,"ELEMENT_SET_NO":999,"REV_AT_EPOCH":347,"BSTAR":0.00012483772,"MEAN_MOTION_DOT":1.219e-5,"MEAN_MOTION_DDOT":0},{"OBJECT_NAME":"TRANSPORTER-16 OBJECT BW","OBJECT_ID":"2026-067BW","EPOCH":"2026-04-22T21:49:28.920000","MEAN_MOTION":14.91857606,"ECCENTRICITY":0.0002817,"INCLINATION":97.7582,"RA_OF_ASC_NODE":72.0418,"ARG_OF_PERICENTER":119.0064,"MEAN_ANOMALY":241.1438,"EPHEMERIS_TYPE":0,"CLASSIFICATION_TYPE":"U","NORAD_CAT_ID":68484,"ELEMENT_SET_NO":999,"REV_AT_EPOCH":348,"BSTAR":0.00015751,"MEAN_MOTION_DOT":1.535e-5,"MEAN_MOTION_DDOT":0},{"OBJECT_NAME":"TRANSPORTER-16 OBJECT BX","OBJECT_ID":"2026-067BX","EPOCH":"2026-04-22T20:10:36.154272","MEAN_MOTION":14.92037418,"ECCENTRICITY":0.00030401,"INCLINATION":97.7551,"RA_OF_ASC_NODE":71.9693,"ARG_OF_PERICENTER":108.8365,"MEAN_ANOMALY":251.3184,"EPHEMERIS_TYPE":0,"CLASSIFICATION_TYPE":"U","NORAD_CAT_ID":68485,"ELEMENT_SET_NO":999,"REV_AT_EPOCH":347,"BSTAR":0.00055056153,"MEAN_MOTION_DOT":5.532e-5,"MEAN_MOTION_DDOT":0},{"OBJECT_NAME":"TRANSPORTER-16 OBJECT BY","OBJECT_ID":"2026-067BY","EPOCH":"2026-04-22T20:14:03.191136","MEAN_MOTION":14.91784663,"ECCENTRICITY":0.00022952,"INCLINATION":97.7544,"RA_OF_ASC_NODE":71.965,"ARG_OF_PERICENTER":109.3552,"MEAN_ANOMALY":250.7916,"EPHEMERIS_TYPE":0,"CLASSIFICATION_TYPE":"U","NORAD_CAT_ID":68486,"ELEMENT_SET_NO":999,"REV_AT_EPOCH":347,"BSTAR":0.00012569346,"MEAN_MOTION_DOT":1.212e-5,"MEAN_MOTION_DDOT":0},{"OBJECT_NAME":"TRANSPORTER-16 OBJECT BZ","OBJECT_ID":"2026-067BZ","EPOCH":"2026-04-22T20:04:29.603136","MEAN_MOTION":14.92254,"ECCENTRICITY":0.00036123,"INCLINATION":97.7509,"RA_OF_ASC_NODE":71.9662,"ARG_OF_PERICENTER":80.7146,"MEAN_ANOMALY":279.4482,"EPHEMERIS_TYPE":0,"CLASSIFICATION_TYPE":"U","NORAD_CAT_ID":68487,"ELEMENT_SET_NO":999,"REV_AT_EPOCH":347,"BSTAR":0.00036028662,"MEAN_MOTION_DOT":3.62e-5,"MEAN_MOTION_DDOT":0},{"OBJECT_NAME":"TRANSPORTER-16 OBJECT CA","OBJECT_ID":"2026-067CA","EPOCH":"2026-04-22T21:57:06.044256","MEAN_MOTION":14.91511423,"ECCENTRICITY":0.0001271,"INCLINATION":97.7541,"RA_OF_ASC_NODE":72.0242,"ARG_OF_PERICENTER":131.6387,"MEAN_ANOMALY":228.494,"EPHEMERIS_TYPE":0,"CLASSIFICATION_TYPE":"U","NORAD_CAT_ID":68488,"ELEMENT_SET_NO":999,"REV_AT_EPOCH":348,"BSTAR":0.00012106,"MEAN_MOTION_DOT":1.157e-5,"MEAN_MOTION_DDOT":0},{"OBJECT_NAME":"TRANSPORTER-16 OBJECT CB","OBJECT_ID":"2026-067CB","EPOCH":"2026-04-22T20:25:29.960544","MEAN_MOTION":14.91291301,"ECCENTRICITY":5.801e-5,"INCLINATION":97.7502,"RA_OF_ASC_NODE":71.9447,"ARG_OF_PERICENTER":202.7721,"MEAN_ANOMALY":157.3472,"EPHEMERIS_TYPE":0,"CLASSIFICATION_TYPE":"U","NORAD_CAT_ID":68489,"ELEMENT_SET_NO":999,"REV_AT_EPOCH":347,"BSTAR":0.00017421265,"MEAN_MOTION_DOT":1.679e-5,"MEAN_MOTION_DDOT":0},{"OBJECT_NAME":"TRANSPORTER-16 OBJECT CC","OBJECT_ID":"2026-067CC","EPOCH":"2026-04-22T20:23:40.831296","MEAN_MOTION":14.91364038,"ECCENTRICITY":0.0001959,"INCLINATION":97.7576,"RA_OF_ASC_NODE":71.9644,"ARG_OF_PERICENTER":164.4021,"MEAN_ANOMALY":195.7258,"EPHEMERIS_TYPE":0,"CLASSIFICATION_TYPE":"U","NORAD_CAT_ID":68490,"ELEMENT_SET_NO":999,"REV_AT_EPOCH":347,"BSTAR":0.00015962395,"MEAN_MOTION_DOT":1.537e-5,"MEAN_MOTION_DDOT":0},{"OBJECT_NAME":"TRANSPORTER-16 OBJECT CD","OBJECT_ID":"2026-067CD","EPOCH":"2026-04-22T20:29:09.038976","MEAN_MOTION":14.91138943,"ECCENTRICITY":0.00017455,"INCLINATION":97.7529,"RA_OF_ASC_NODE":71.9485,"ARG_OF_PERICENTER":211.6552,"MEAN_ANOMALY":148.4561,"EPHEMERIS_TYPE":0,"CLASSIFICATION_TYPE":"U","NORAD_CAT_ID":68491,"ELEMENT_SET_NO":999,"REV_AT_EPOCH":347,"BSTAR":0.00013668449,"MEAN_MOTION_DOT":1.301e-5,"MEAN_MOTION_DDOT":0},{"OBJECT_NAME":"TRANSPORTER-16 OBJECT CE","OBJECT_ID":"2026-067CE","EPOCH":"2026-04-22T20:30:27.777888","MEAN_MOTION":14.9111424,"ECCENTRICITY":0.00019477,"INCLINATION":97.7534,"RA_OF_ASC_NODE":71.9481,"ARG_OF_PERICENTER":214.5916,"MEAN_ANOMALY":145.5176,"EPHEMERIS_TYPE":0,"CLASSIFICATION_TYPE":"U","NORAD_CAT_ID":68492,"ELEMENT_SET_NO":999,"REV_AT_EPOCH":347,"BSTAR":0.00032996996,"MEAN_MOTION_DOT":3.216e-5,"MEAN_MOTION_DDOT":0},{"OBJECT_NAME":"TRANSPORTER-16 OBJECT CF","OBJECT_ID":"2026-067CF","EPOCH":"2026-04-22T20:28:55.595136","MEAN_MOTION":14.91160976,"ECCENTRICITY":0.00032199,"INCLINATION":97.762,"RA_OF_ASC_NODE":71.9693,"ARG_OF_PERICENTER":182.1064,"MEAN_ANOMALY":178.0142,"EPHEMERIS_TYPE":0,"CLASSIFICATION_TYPE":"U","NORAD_CAT_ID":68493,"ELEMENT_SET_NO":999,"REV_AT_EPOCH":347,"BSTAR":0.0002651696,"MEAN_MOTION_DOT":2.577e-5,"MEAN_MOTION_DDOT":0}]
